start=new Date('2022-09-01T00:00:00.000Z').valueOf();
sats=[{"OBJECT_TYPE":"PAYLOAD","PERIOD":"95.592","OBJECT_ID":"2021-041A","ARG_OF_PERICENTER":"70.3310","SEMIMAJOR_AXIS":"6925.356","APOAPSIS":"548.329","MEAN_MOTION_DOT":"0.00002580","COUNTRY_CODE":"US","DECAY_DATE":null,"PERIAPSIS":"546.112","OBJECT_NAME":"STARLINK-2063","TIME_SYSTEM":"UTC","MEAN_ANOMALY":"289.7852","REV_AT_EPOCH":"7138","ELEMENT_SET_NO":"999","ECCENTRICITY":"0.00016000","CLASSIFICATION_TYPE":"U","SITE":"AFETR","MEAN_MOTION_DDOT":"0.0000000000000","REF_FRAME":"TEME","RCS_SIZE":"LARGE","EPHEMERIS_TYPE":"0","EPOCH":"2022-08-31T17:49:48.359712","TLE_LINE1":"1 48553U 21041A   22243.74292083  .00002580  00000-0  19204-3 0  9995","MEAN_MOTION":"15.06397723","CENTER_NAME":"EARTH","NORAD_CAT_ID":"48553","TLE_LINE2":"2 48553  53.0541 144.4572 0001600  70.3310 289.7852 15.06397723 71386","INCLINATION":"53.0541","LAUNCH_DATE":"2021-05-15","BSTAR":"0.00019204000000","RA_OF_ASC_NODE":"144.4572","FILE":"3552761","GP_ID":"211424231","MEAN_ELEMENT_THEORY":"SGP4"},{"BSTAR":"0.00010556000000","TLE_LINE2":"2 48554  53.0538 143.8388 0001143  77.9101 282.2016 15.06395790 71409","INCLINATION":"53.0538","LAUNCH_DATE":"2021-05-15","MEAN_MOTION":"15.06395790","CENTER_NAME":"EARTH","NORAD_CAT_ID":"48554","MEAN_MOTION_DDOT":"0.0000000000000","REF_FRAME":"TEME","RCS_SIZE":"LARGE","EPOCH":"2022-08-31T21:11:30.023232","EPHEMERIS_TYPE":"0","TLE_LINE1":"1 48554U 21041B   22243.88298638  .00001291  00000-0  10556-3 0  9992","GP_ID":"211422979","MEAN_ELEMENT_THEORY":"SGP4","FILE":"3552761","RA_OF_ASC_NODE":"143.8388","APOAPSIS":"548.018","SEMIMAJOR_AXIS":"6925.361","ARG_OF_PERICENTER":"77.9101","OBJECT_ID":"2021-041B","PERIOD":"95.592","OBJECT_TYPE":"PAYLOAD","CLASSIFICATION_TYPE":"U","SITE":"AFETR","MEAN_ANOMALY":"282.2016","ECCENTRICITY":"0.00011430","ELEMENT_SET_NO":"999","REV_AT_EPOCH":"7140","DECAY_DATE":null,"PERIAPSIS":"546.435","OBJECT_NAME":"STARLINK-2139","TIME_SYSTEM":"UTC","MEAN_MOTION_DOT":"0.00001291","COUNTRY_CODE":"US"},{"SEMIMAJOR_AXIS":"6925.345","APOAPSIS":"548.301","PERIOD":"95.592","OBJECT_TYPE":"PAYLOAD","OBJECT_ID":"2021-041C","ARG_OF_PERICENTER":"67.6803","ELEMENT_SET_NO":"999","REV_AT_EPOCH":"7114","ECCENTRICITY":"0.00015750","MEAN_ANOMALY":"292.4353","SITE":"AFETR","CLASSIFICATION_TYPE":"U","MEAN_MOTION_DOT":"-0.00001133","COUNTRY_CODE":"US","TIME_SYSTEM":"UTC","DECAY_DATE":null,"PERIAPSIS":"546.119","OBJECT_NAME":"STARLINK-2145","LAUNCH_DATE":"2021-05-15","INCLINATION":"53.0543","TLE_LINE2":"2 48555  53.0543 157.2819 0001575  67.6803 292.4353 15.06401161 71146","BSTAR":"-0.00005715600000","RCS_SIZE":"LARGE","EPOCH":"2022-08-31T02:46:09.955200","EPHEMERIS_TYPE":"0","TLE_LINE1":"1 48555U 21041C   22243.11539300 -.00001133  00000-0 -57156-4 0  9998","REF_FRAME":"TEME","MEAN_MOTION_DDOT":"0.0000000000000","CENTER_NAME":"EARTH","NORAD_CAT_ID":"48555","MEAN_MOTION":"15.06401161","MEAN_ELEMENT_THEORY":"SGP4","GP_ID":"211392258","RA_OF_ASC_NODE":"157.2819","FILE":"3552511"},{"MEAN_MOTION_DOT":"0.00000396","COUNTRY_CODE":"US","DECAY_DATE":null,"OBJECT_NAME":"STARLINK-2151","PERIAPSIS":"546.061","TIME_SYSTEM":"UTC","MEAN_ANOMALY":"299.6617","ELEMENT_SET_NO":"999","ECCENTRICITY":"0.00016760","REV_AT_EPOCH":"7113","SITE":"AFETR","CLASSIFICATION_TYPE":"U","PERIOD":"95.592","OBJECT_TYPE":"PAYLOAD","ARG_OF_PERICENTER":"60.4539","OBJECT_ID":"2021-041D","SEMIMAJOR_AXIS":"6925.356","APOAPSIS":"548.382","RA_OF_ASC_NODE":"157.6320","FILE":"3552511","GP_ID":"211392008","MEAN_ELEMENT_THEORY":"SGP4","REF_FRAME":"TEME","MEAN_MOTION_DDOT":"0.0000000000000","RCS_SIZE":"LARGE","EPHEMERIS_TYPE":"0","EPOCH":"2022-08-31T00:54:41.985216","TLE_LINE1":"1 48556U 21041D   22243.03798594  .00000396  00000-0  45515-4 0  9996","MEAN_MOTION":"15.06397449","NORAD_CAT_ID":"48556","CENTER_NAME":"EARTH","TLE_LINE2":"2 48556  53.0549 157.6320 0001676  60.4539 299.6617 15.06397449 71137","LAUNCH_DATE":"2021-05-15","INCLINATION":"53.0549","BSTAR":"0.00004551500000"},{"BSTAR":"-0.00006981200000","TLE_LINE2":"2 48557  53.0543 147.2999 0001558  74.6926 285.4235 15.06385651 71282","INCLINATION":"53.0543","LAUNCH_DATE":"2021-05-15","MEAN_MOTION":"15.06385651","CENTER_NAME":"EARTH","NORAD_CAT_ID":"48557","REF_FRAME":"TEME","MEAN_MOTION_DDOT":"0.0000000000000","TLE_LINE1":"1 48557U 21041E   22243.10894377 -.00001321  00000-0 -69812-4 0  9998","EPOCH":"2022-08-31T02:36:52.741728","RCS_SIZE":"LARGE","EPHEMERIS_TYPE":"0","GP_ID":"211393260","MEAN_ELEMENT_THEORY":"SGP4","FILE":"3552511","RA_OF_ASC_NODE":"147.2999","APOAPSIS":"548.337","SEMIMAJOR_AXIS":"6925.393","OBJECT_ID":"2021-041E","ARG_OF_PERICENTER":"74.6926","OBJECT_TYPE":"PAYLOAD","PERIOD":"95.593","CLASSIFICATION_TYPE":"U","SITE":"AFETR","MEAN_ANOMALY":"285.4235","ELEMENT_SET_NO":"999","REV_AT_EPOCH":"7128","ECCENTRICITY":"0.00015580","PERIAPSIS":"546.179","OBJECT_NAME":"STARLINK-2155","DECAY_DATE":null,"TIME_SYSTEM":"UTC","COUNTRY_CODE":"US","MEAN_MOTION_DOT":"-0.00001321"},{"OBJECT_ID":"2021-041F","ARG_OF_PERICENTER":"86.6353","PERIOD":"95.593","OBJECT_TYPE":"PAYLOAD","APOAPSIS":"548.175","SEMIMAJOR_AXIS":"6925.371","DECAY_DATE":null,"OBJECT_NAME":"STARLINK-2166","PERIAPSIS":"546.297","TIME_SYSTEM":"UTC","MEAN_MOTION_DOT":"-0.00001400","COUNTRY_CODE":"US","CLASSIFICATION_TYPE":"U","SITE":"AFETR","MEAN_ANOMALY":"273.4791","ECCENTRICITY":"0.00013560","REV_AT_EPOCH":"7042","ELEMENT_SET_NO":"999","MEAN_MOTION":"15.06392623","NORAD_CAT_ID":"48558","CENTER_NAME":"EARTH","REF_FRAME":"TEME","MEAN_MOTION_DDOT":"0.0000000000000","RCS_SIZE":"LARGE","EPOCH":"2022-08-31T02:31:34.383648","EPHEMERIS_TYPE":"0","TLE_LINE1":"1 48558U 21041F   22243.10525907 -.00001400  00000-0 -75149-4 0  9997","BSTAR":"-0.00007514900000","TLE_LINE2":"2 48558  53.0554 147.3314 0001356  86.6353 273.4791 15.06392623 70426","INCLINATION":"53.0554","LAUNCH_DATE":"2021-05-15","FILE":"3552511","RA_OF_ASC_NODE":"147.3314","GP_ID":"211393010","MEAN_ELEMENT_THEORY":"SGP4"},{"RCS_SIZE":"LARGE","EPOCH":"2022-08-31T19:18:41.466240","EPHEMERIS_TYPE":"0","TLE_LINE1":"1 48559U 21041G   22243.80464660  .00001737  00000-0  13550-3 0  9991","MEAN_MOTION_DDOT":"0.0000000000000","REF_FRAME":"TEME","CENTER_NAME":"EARTH","NORAD_CAT_ID":"48559","MEAN_MOTION":"15.06392463","LAUNCH_DATE":"2021-05-15","INCLINATION":"53.0539","TLE_LINE2":"2 48559  53.0539 144.1795 0001581  76.7917 283.3248 15.06392463 71389","BSTAR":"0.00013550000000","RA_OF_ASC_NODE":"144.1795","FILE":"3552761","MEAN_ELEMENT_THEORY":"SGP4","GP_ID":"211423729","OBJECT_TYPE":"PAYLOAD","PERIOD":"95.593","OBJECT_ID":"2021-041G","ARG_OF_PERICENTER":"76.7917","SEMIMAJOR_AXIS":"6925.372","APOAPSIS":"548.332","MEAN_MOTION_DOT":"0.00001737","COUNTRY_CODE":"US","TIME_SYSTEM":"UTC","DECAY_DATE":null,"PERIAPSIS":"546.142","OBJECT_NAME":"STARLINK-2167","ELEMENT_SET_NO":"999","REV_AT_EPOCH":"7138","ECCENTRICITY":"0.00015810","MEAN_ANOMALY":"283.3248","CLASSIFICATION_TYPE":"U","SITE":"AFETR"},{"BSTAR":"0.00019480000000","TLE_LINE2":"2 48561  53.0543 114.0920 0001313  89.5584 270.5556 15.06389413 71828","INCLINATION":"53.0543","LAUNCH_DATE":"2021-05-15","MEAN_MOTION":"15.06389413","CENTER_NAME":"EARTH","NORAD_CAT_ID":"48561","MEAN_MOTION_DDOT":"0.0000000000000","REF_FRAME":"TEME","EPOCH":"2022-08-31T21:15:33.120000","RCS_SIZE":"LARGE","EPHEMERIS_TYPE":"0","TLE_LINE1":"1 48561U 21041J   22243.88580000  .00002620  00000-0  19480-3 0  9999","GP_ID":"211424481","MEAN_ELEMENT_THEORY":"SGP4","FILE":"3552761","RA_OF_ASC_NODE":"114.0920","APOAPSIS":"548.155","SEMIMAJOR_AXIS":"6925.381","OBJECT_ID":"2021-041J","ARG_OF_PERICENTER":"89.5584","PERIOD":"95.593","OBJECT_TYPE":"PAYLOAD","CLASSIFICATION_TYPE":"U","SITE":"AFETR","MEAN_ANOMALY":"270.5556","ECCENTRICITY":"0.00013130","REV_AT_EPOCH":"7182","ELEMENT_SET_NO":"999","DECAY_DATE":null,"OBJECT_NAME":"STARLINK-2186","PERIAPSIS":"546.337","TIME_SYSTEM":"UTC","MEAN_MOTION_DOT":"0.00002620","COUNTRY_CODE":"US"},{"FILE":"3552761","RA_OF_ASC_NODE":"143.8423","GP_ID":"211424232","MEAN_ELEMENT_THEORY":"SGP4","MEAN_MOTION":"15.06393666","NORAD_CAT_ID":"48562","CENTER_NAME":"EARTH","MEAN_MOTION_DDOT":"0.0000000000000","REF_FRAME":"TEME","RCS_SIZE":"LARGE","EPHEMERIS_TYPE":"0","EPOCH":"2022-08-31T21:06:11.850912","TLE_LINE1":"1 48562U 21041K   22243.87930383  .00001613  00000-0  12716-3 0  9998","BSTAR":"0.00012716000000","TLE_LINE2":"2 48562  53.0543 143.8423 0001409  80.1751 279.9397 15.06393666 71401","INCLINATION":"53.0543","LAUNCH_DATE":"2021-05-15","DECAY_DATE":null,"OBJECT_NAME":"STARLINK-2187","PERIAPSIS":"546.257","TIME_SYSTEM":"UTC","MEAN_MOTION_DOT":"0.00001613","COUNTRY_CODE":"US","SITE":"AFETR","CLASSIFICATION_TYPE":"U","MEAN_ANOMALY":"279.9397","ECCENTRICITY":"0.00014090","ELEMENT_SET_NO":"999","REV_AT_EPOCH":"7140","OBJECT_ID":"2021-041K","ARG_OF_PERICENTER":"80.1751","PERIOD":"95.593","OBJECT_TYPE":"PAYLOAD","APOAPSIS":"548.209","SEMIMAJOR_AXIS":"6925.368"},{"REV_AT_EPOCH":"7140","ECCENTRICITY":"0.00017800","ELEMENT_SET_NO":"999","MEAN_ANOMALY":"285.3942","CLASSIFICATION_TYPE":"U","SITE":"AFETR","COUNTRY_CODE":"US","MEAN_MOTION_DOT":"0.00000715","TIME_SYSTEM":"UTC","PERIAPSIS":"546.026","OBJECT_NAME":"STARLINK-2188","DECAY_DATE":null,"SEMIMAJOR_AXIS":"6925.394","APOAPSIS":"548.491","OBJECT_TYPE":"PAYLOAD","PERIOD":"95.593","OBJECT_ID":"2021-041L","ARG_OF_PERICENTER":"74.7243","MEAN_ELEMENT_THEORY":"SGP4","GP_ID":"211422980","RA_OF_ASC_NODE":"143.7589","FILE":"3552761","INCLINATION":"53.0539","LAUNCH_DATE":"2021-05-15","TLE_LINE2":"2 48563  53.0539 143.7589 0001780  74.7243 285.3942 15.06385307 71406","BSTAR":"0.00006695600000","TLE_LINE1":"1 48563U 21041L   22243.89774528  .00000715  00000-0  66956-4 0  9996","EPHEMERIS_TYPE":"0","RCS_SIZE":"LARGE","EPOCH":"2022-08-31T21:32:45.192192","MEAN_MOTION_DDOT":"0.0000000000000","REF_FRAME":"TEME","CENTER_NAME":"EARTH","NORAD_CAT_ID":"48563","MEAN_MOTION":"15.06385307"}];
